ALD0012 17.25  0.15 K162A   0.99681   37.31949  112.25125    2.93343  0.0253318  0.19723722   2.9228742    FO 161109     4   1 58.1 min  0.20         Find_Orb   0000 ALD0012                     20160209
ALD0013 17.69  0.15 K162A   0.11343  160.83082  348.23772    4.93378  0.0392287  0.26891387   2.3771718    FO 161109     3   1 38.8 min  0.06         Find_Orb   0000 ALD0013                     20160209
